#dP2022  5  5 18  0  0.00000000      96 __u+U ITR00 EXT  IAC
## 2208 410400.00000000   900.00000000 59704 0.7500000000000
+  116   C06C07C08C09C10C11C12C13C14C16C19C20C21C22C23C24C25
+        C26C27C28C29C30C32C33C34C35C36C37C38C39C40C41C42C43
+        C44C45C46E02E03E04E05E07E08E09E10E11E12E13E14E15E18
+        E19E21E24E25E26E27E30E31E33E34E36G01G02G03G04G05G06
+        G07G08G09G10G11G12G13G14G15G16G17G18G19G20G21G22G23
+        G24G25G26G27G28G29G30G31G32J02J03R01R02R03R04R05R07
+        R08R09R11R12R13R14R15R17R18R19R20R21R22R24  0  0  0
++        10  8  7 10 10  9  8  8 10 10  9  9  7  9 10  8  8
++         7  8  8  9  8  8  7  9  8 11  7  8  9 11  7  7  8
++         8  8 11  8  8  8  7  8  7  7  7  9  7  8  9  8  8
++         6  7  8  7  7  8  8  9  7  7  7 11  8  7  7  7  8
++         8  6  8  9  8  8  7  8  6  8  7  8  8  7  8  9  7
++         8  7  7  7  8  8  7  7  8 11 10 10  7  8  7  8  7
++         8 10  9  8  8 10  7  8  8  8  9  8  9  7  0  0  0
%c M  cc GPS ccc cccc cccc cccc cccc ccccc ccccc ccccc ccccc
%c cc cc ccc ccc cccc cccc cccc cccc ccccc ccccc ccccc ccccc
%f  0.0000000  0.000000000  0.00000000000  0.000000000000000
%f  0.0000000  0.000000000  0.00000000000  0.000000000000000
%i    0    0    0    0      0      0      0      0         0
%i    0    0    0    0      0      0      0      0         0
/* IAC                                ULTRA-RAPID PREDICTION
/* S/V CLOCKS ARE ALIGNED TO GNSS TIME                      
/* G:C1WC2W R:C1PC2P E:C1XC5X C:C2IC6I J:C1CC2S             
/* PCV:IGS14_2196 OL/AL:FES2004  NONE     YN ORB:CoN CLK:CoN
*  2022 05 06  1 45  0.00000000
PC06 -12203.409534  40241.725665   -327.789258    -71.995617
PC07  -3790.106210  29401.330405  30030.344031   -129.411962
PC08 -18071.159084  23002.374935 -30420.738988    297.667711
PC09  -6717.968418  40325.730732   9521.657878   -760.831871
PC10   4739.135901  32668.775228  26734.576069    133.605125
PC11  16261.694980 -11748.041605 -19327.863168    334.644906
PC12  13382.846213   8608.282576 -22895.595367   -620.279740
PC13  -8741.779025  24292.015039 -33265.323675    -41.018634
PC14  18926.954681  -1700.249405  20483.197663    468.902427
PC16 -13617.365919  39622.698532  -3094.151948    128.155185
PC19 -11849.282350  10506.077453 -22945.083724    872.462760
PC20 -22167.703282  -5753.568075 -15900.897618   -903.568794
PC21  19802.560420  19648.389293  -1166.857033   -238.532527
PC22   5735.906504  21390.815085 -16991.480920   -972.670960
PC23   4813.582879 -17382.741213 -21289.591868   -930.249167
PC24  26547.709811  -1599.724068   8404.764845   -960.735486
PC25  21542.941983 -14583.844029 -10078.779911   -740.836332
PC26  16382.985553   9943.183030  20262.566883    741.932914
PC27  -9393.247577 -17721.564544  19386.456825    718.741441
PC28   2947.856507 -27218.138577   5406.214152     63.428868
PC29 -13204.338493  21247.889608  12350.476744    550.792342
PC30 -16366.991060   1919.237328  22507.065723    498.067234
PC32 -19886.213012 -19525.758704   1269.009194   -962.718842
PC33  11924.649786 -10510.024405  22948.394362   -965.819907
PC34  16534.869854  -3101.281452 -22283.418513   -409.966606
PC35  -2626.752838  27401.440651  -4475.238946    260.853596
PC36 -22227.353263  13864.847272   9641.598660   -963.866913
PC37 -15111.575541 -10967.030271 -20730.472668   -914.967989
PC38 -24496.957804  24181.490341 -24416.908129    230.117694
PC39 -15178.006544  37956.751251  -9938.278943     34.984579
PC40  -7069.421820  24161.436464  33838.274128    266.683195
PC41  -5274.367351 -21254.880200  17349.207304   -965.780701
PC42  22504.439161   6603.220704  15190.353762   -963.334969
PC43  13638.949329 -20676.681862 -12890.775400   -925.798250
PC44  10058.830456  17527.608070 -19243.728241    650.356077
PC45  -4537.394954  17253.636404  21464.516837    749.555044
PC46 -26875.037723   2747.219848  -7066.547723   -309.196191
PE02   8506.538544  17499.129769  22297.152970    297.319247
PE03   7697.871009  28542.866185  -1634.826004   -555.283915
PE04 -17271.981494 -18222.074077 -15664.047690  -1021.693623
PE05  -6609.808233  22275.521740 -18331.187383   -184.317405
PE07  16870.258336  -3141.640428  24130.702665   -665.618276
PE08  17332.886378  17933.542675  15959.112990   -524.189594
PE09 -16663.150977   3332.395872 -24226.206446   -508.343572
PE10 -20602.149204   2469.300067  21098.107640   -511.150566
PE11 -23197.707756  12030.888547  13870.421537   3756.069288
PE12 -14984.316242  -7181.344322  24488.387164   4628.104094
PE13  23104.799376 -11535.329235 -14478.222732    428.491344
PE14 -10928.045949 -18253.632362  10373.913388  -1838.755640
PE15  14863.542239   7205.571282 -24561.579494    747.422575
PE18  17923.361991  19304.173642 -18990.568175  -1482.692100
PE19  -5974.941382 -28714.913555   4006.870705  -4183.662281
PE21  12517.047765 -13373.621974 -23255.087470   -732.513198
PE24 -27947.540462    377.477795   9763.079033   -599.187776
PE25 -12805.797074  13248.011435  23169.194851   -572.904771
PE26  17186.473119 -23588.588982   4955.470327  -1111.238004
PE27  27501.194985  -1328.754511 -10856.248779   -292.175877
PE30  25598.766112  12022.930140   8702.702211   -487.165316
PE31 -26179.930010 -11389.953053  -7816.190985   -496.169233
PE33   2118.148670 -21621.664258  20111.724518   -456.925624
PE34  -1878.216000  21527.888426 -20237.579502   -515.603706
PE36 -17714.807062  23359.514813  -4032.757640   -369.567789
PG01 -10475.597423  20302.352831 -13531.454442    369.318703
PG02  21036.370137 -14735.789390  -6399.270231   -653.277279
PG03  -1687.599570  15169.944149 -21853.407132   -233.714357
PG04  -1797.407094  25246.565777  -7894.774259   -169.893499
PG05  17664.160693  -7820.815330  18130.765295    -80.807050
PG06  19168.493450   -328.136296 -18355.864542    292.465292
PG07   5524.148128  15264.813320  21344.156893    321.728714
PG08  -7216.184979  19776.065957  15939.301430    -66.812419
PG09   6880.516901  25528.907247   2273.391762   -338.879850
PG10 -23466.224429 -11826.331402   4971.567480   -403.804197
PG11  22896.661480 -11767.787699  -6502.550093    -28.824284
PG12   6895.863359 -13507.561438 -22068.820737   -211.043011
PG13  13064.234545 -11625.670290  19787.043842    306.458743
PG14  22385.552755  13227.604585   5639.371361   -106.847741
PG15   4779.041817 -21126.859559  14750.970822    -63.504138
PG16 -21532.182815   1801.577299  15471.632265   -498.305753
PG17  13104.104265  15645.777283 -16537.643139    609.112795
PG18  -4057.919530 -15410.393852  21221.487777    177.700752
PG19  14713.256571   8242.999534 -20831.783937    153.552134
PG20  24265.061561  -2950.146006  10098.960458    515.502250
PG21 -17270.418517  19481.602469  -2202.195628    160.933769
PG22 -15143.692915  -5014.289513 -20852.326884    254.489637
PG23 -16064.950128 -15577.722262  14375.866014    -19.944027
PG24  12203.796429 -21655.113510  -9051.296018    246.017096
PG25  -8855.164812 -17047.400172 -18744.709294    321.030168
PG26 -25942.515834  -3621.073175   5218.431174    203.629737
PG27 -13337.058604   7825.731959  21327.564290    197.825700
PG28  24509.844083   9415.398533  -2548.441573    362.618530
PG29  -4113.777501 -26131.078684   1911.863245   -510.607670
PG30  13950.292299   8564.529398  21033.195823   -526.754212
PG31 -21034.033986   2079.272967 -16489.486528   -176.407947
PG32 -15098.317170 -12861.169426 -17609.471788   -120.622252
PJ02 -28151.465838  23000.360648  26320.238949     -3.271699
PJ03 -30786.942067  26773.693930  15642.333246     -1.963576
PR01  10846.781914  21240.254043  -9064.978223      8.444972
PR02  17306.837084  15419.277421  10629.295518    517.529312
PR03  13113.966469    294.139165  21916.656683     56.153373
PR04   1567.468936 -14525.557809  20945.063291    140.124325
PR05 -10713.878453 -21576.373269   8435.383586     92.377217
PR07 -12764.555738    266.636634 -22046.369908     34.715412
PR08  -1465.373426  14669.994939 -20747.315299    -64.979201
PR09 -21767.329764  -3504.750701 -12745.876785     53.519773
PR11 -14083.790353  10574.856654  18454.755706     39.687557
PR12   5902.900880  10204.660710  22641.902525     18.300398
PR13  21024.749907   4023.961781  13856.015728    -21.884308
PR14  24650.655846  -5017.233772  -4270.067442     77.290001
PR15  13436.823664 -10634.075916 -18878.787656     96.351530
PR17  14056.569856 -11720.207796 -17749.040794    523.552135
PR18  11698.777740 -22510.146077  -2931.526097    115.886340
PR19   4479.028679 -21793.839681  12472.214791   -187.965559
PR20  -8016.378872  -6995.180377  23188.419693    -70.007324
PR21 -14166.320550  13035.880474  16740.848833   -298.923691
PR22 -11485.111698  22621.061115   2051.036239   -181.335281
PR24   8980.241439   6265.501832 -23027.017548     92.369256
EOF
